QIANFAN-73              
1 63159U 25046A   25275.20691603  .00000264  00000+0  39059-3 0  9999
2 63159  88.9817 327.4227 0013653 338.1620  21.8948 13.50978785 37752
QIANFAN-74              
1 63160U 25046B   25275.19041395  .00000270  00000+0  40001-3 0  9992
2 63160  88.9817 327.3128 0002251 104.0235 256.1166 13.50968364 37811
QIANFAN-75              
1 63161U 25046C   25275.17809940  .00000341  00000+0  51032-3 0  9994
2 63161  88.9819 327.5466 0014818 340.9971  19.0625 13.50976260 37686
QIANFAN-76              
1 63162U 25046D   25275.09992718  .00000169  00000+0  24320-3 0  9990
2 63162  88.9819 327.5356 0012425 343.2256  16.8483 13.50975020 37689
QIANFAN-77              
1 63163U 25046E   25275.15521491  .00000636  00000+0  45398-3 0  9991
2 63163  88.9814 326.1249 0012628 308.9241  51.0809 13.96059953 38466
QIANFAN-78              
1 63164U 25046F   25270.17873922  .00000155  00000+0  22125-3 0  9997
2 63164  88.9825 327.9067 0014334 359.8558   0.2586 13.50978582 37092
QIANFAN-79              
1 63165U 25046G   25275.16977267  .00000295  00000+0  43860-3 0  9993
2 63165  88.9821 327.4979 0013489 343.0092  17.0605 13.50970709 37714
QIANFAN-80              
1 63166U 25046H   25275.18635186  .00000321  00000+0  47834-3 0  9992
2 63166  88.9818 327.2050 0012650 348.2765  11.8090 13.50971538 37870
